[{"OBJECT_NAME":"STARLINK-36657","OBJECT_ID":"2026-033Q","EPOCH":"2026-03-09T22:29:26.170944","MEAN_MOTION":15.82121331,"ECCENTRICITY":0.00018064,"INCLINATION":42.9975,"RA_OF_ASC_NODE":269.8698,"ARG_OF_PERICENTER":274.2564,"MEAN_ANOMALY":85.8101,"EPHEMERIS_TYPE":0,"CLASSIFICATION_TYPE":"U","NORAD_CAT_ID":67835,"ELEMENT_SET_NO":999,"REV_AT_EPOCH":466,"BSTAR":0.00145823,"MEAN_MOTION_DOT":0.00319701,"MEAN_MOTION_DDOT":0},{"OBJECT_NAME":"COSMOS 1602","OBJECT_ID":"1984-105A","EPOCH":"2026-03-09T22:48:46.831392","MEAN_MOTION":15.83356674,"ECCENTRICITY":0.00023642,"INCLINATION":82.5141,"RA_OF_ASC_NODE":36.2127,"ARG_OF_PERICENTER":125.565,"MEAN_ANOMALY":234.584,"EPHEMERIS_TYPE":0,"CLASSIFICATION_TYPE":"U","NORAD_CAT_ID":15331,"ELEMENT_SET_NO":999,"REV_AT_EPOCH":26658,"BSTAR":0.00071609066,"MEAN_MOTION_DOT":0.00157023,"MEAN_MOTION_DDOT":0}]
